{
  "type": "FeatureCollection",
  "features": [
    {
      "type": "Feature",
      "properties": {
        "norad_id": 36163,
        "name": "FENGYUN 1C DEB",
        "group": "fengyun-1c-debris",
        "lat": 27.52550780559087,
        "lon": 18.933405290739657,
        "alt_km": 694.397779875454,
        "timestamp": "2025-12-15T19:00:45.644536+00:00",
        "meta_object_name": "FENGYUN 1C DEB",
        "meta_object_id": "1999-025DSL",
        "meta_epoch": "2025-12-13T00:29:29.136768",
        "meta_mean_motion": 14.59067364,
        "meta_eccentricity": 0.00385289,
        "meta_inclination": 99.0787,
        "meta_ra_of_asc_node": 191.1254,
        "meta_arg_of_pericenter": 70.7089,
        "meta_mean_anomaly": 289.8269,
        "meta_ephemeris_type": 0,
        "meta_classification_type": "U",
        "meta_norad_cat_id": 36163,
        "meta_element_set_no": 999,
        "meta_rev_at_epoch": 89191,
        "meta_bstar": 0.0044174504,
        "meta_mean_motion_dot": 0.00020992,
        "meta_mean_motion_ddot": 0,
        "tle_line1": "1 36163U 99025DSL 25347.02047612  .00020992  00000+0  44175-2 0  9991",
        "tle_line2": "2 36163  99.0787 191.1254 0038528  70.7089 289.8269 14.59067364891918"
      },
      "geometry": {
        "type": "Point",
        "coordinates": [
          18.933405290739657,
          27.52550780559087
        ]
      }
    },
    {
      "type": "Feature",
      "properties": {
        "norad_id": 36167,
        "name": "FENGYUN 1C DEB",
        "group": "fengyun-1c-debris",
        "lat": 41.75901589364272,
        "lon": 85.0607891112717,
        "alt_km": 730.8078163113378,
        "timestamp": "2025-12-15T19:00:45.644547+00:00",
        "meta_object_name": "FENGYUN 1C DEB",
        "meta_object_id": "1999-025DSQ",
        "meta_epoch": "2025-12-11T11:38:30.131808",
        "meta_mean_motion": 14.49236898,
        "meta_eccentricity": 0.00689441,
        "meta_inclination": 98.812,
        "meta_ra_of_asc_node": 252.6028,
        "meta_arg_of_pericenter": 248.2958,
        "meta_mean_anomaly": 111.0884,
        "meta_ephemeris_type": 0,
        "meta_classification_type": "U",
        "meta_norad_cat_id": 36167,
        "meta_element_set_no": 999,
        "meta_rev_at_epoch": 67261,
        "meta_bstar": 0.0021364842,
        "meta_mean_motion_dot": 8.349e-05,
        "meta_mean_motion_ddot": 0,
        "tle_line1": "1 36167U 99025DSQ 25345.48507097  .00008349  00000+0  21365-2 0  9999",
        "tle_line2": "2 36167  98.8120 252.6028 0068944 248.2958 111.0884 14.49236898672616"
      },
      "geometry": {
        "type": "Point",
        "coordinates": [
          85.0607891112717,
          41.75901589364272
        ]
      }
    },
    {
      "type": "Feature",
      "properties": {
        "norad_id": 36173,
        "name": "FENGYUN 1C DEB",
        "group": "fengyun-1c-debris",
        "lat": -66.44204145674851,
        "lon": -33.93312039876058,
        "alt_km": 860.3188361828534,
        "timestamp": "2025-12-15T19:00:45.644557+00:00",
        "meta_object_name": "FENGYUN 1C DEB",
        "meta_object_id": "1999-025DSW",
        "meta_epoch": "2025-12-13T15:06:11.838816",
        "meta_mean_motion": 14.25174988,
        "meta_eccentricity": 0.01471409,
        "meta_inclination": 98.2142,
        "meta_ra_of_asc_node": 304.6937,
        "meta_arg_of_pericenter": 182.5109,
        "meta_mean_anomaly": 177.535,
        "meta_ephemeris_type": 0,
        "meta_classification_type": "U",
        "meta_norad_cat_id": 36173,
        "meta_element_set_no": 999,
        "meta_rev_at_epoch": 59103,
        "meta_bstar": 0.00034958587,
        "meta_mean_motion_dot": 8.78e-06,
        "meta_mean_motion_ddot": 0,
        "tle_line1": "1 36173U 99025DSW 25347.62930369  .00000878  00000+0  34959-3 0  9999",
        "tle_line2": "2 36173  98.2142 304.6937 0147140 182.5109 177.5350 14.25174988591038"
      },
      "geometry": {
        "type": "Point",
        "coordinates": [
          -33.93312039876058,
          -66.44204145674851
        ]
      }
    },
    {
      "type": "Feature",
      "properties": {
        "norad_id": 36180,
        "name": "FENGYUN 1C DEB",
        "group": "fengyun-1c-debris",
        "lat": -38.037770981828714,
        "lon": -133.4033272931921,
        "alt_km": 974.4740277141045,
        "timestamp": "2025-12-15T19:00:45.644568+00:00",
        "meta_object_name": "FENGYUN 1C DEB",
        "meta_object_id": "1999-025DTD",
        "meta_epoch": "2025-12-05T21:21:22.276224",
        "meta_mean_motion": 14.20680074,
        "meta_eccentricity": 0.02106275,
        "meta_inclination": 98.4572,
        "meta_ra_of_asc_node": 43.7979,
        "meta_arg_of_pericenter": 50.8055,
        "meta_mean_anomaly": 311.1621,
        "meta_ephemeris_type": 0,
        "meta_classification_type": "U",
        "meta_norad_cat_id": 36180,
        "meta_element_set_no": 999,
        "meta_rev_at_epoch": 70486,
        "meta_bstar": 0.00091841135,
        "meta_mean_motion_dot": 2.432e-05,
        "meta_mean_motion_ddot": 0,
        "tle_line1": "1 36180U 99025DTD 25339.88984116  .00002432  00000+0  91841-3 0  9996",
        "tle_line2": "2 36180  98.4572  43.7979 0210627  50.8055 311.1621 14.20680074704867"
      },
      "geometry": {
        "type": "Point",
        "coordinates": [
          -133.4033272931921,
          -38.037770981828714
        ]
      }
    },
    {
      "type": "Feature",
      "properties": {
        "norad_id": 36182,
        "name": "FENGYUN 1C DEB",
        "group": "fengyun-1c-debris",
        "lat": -69.12382124527392,
        "lon": 72.68834827509437,
        "alt_km": 798.9134753247045,
        "timestamp": "2025-12-15T19:00:45.644578+00:00",
        "meta_object_name": "FENGYUN 1C DEB",
        "meta_object_id": "1999-025DTF",
        "meta_epoch": "2025-12-14T13:23:37.542624",
        "meta_mean_motion": 14.34742053,
        "meta_eccentricity": 0.00221194,
        "meta_inclination": 99.0884,
        "meta_ra_of_asc_node": 276.2066,
        "meta_arg_of_pericenter": 70.748,
        "meta_mean_anomaly": 289.6093,
        "meta_ephemeris_type": 0,
        "meta_classification_type": "U",
        "meta_norad_cat_id": 36182,
        "meta_element_set_no": 999,
        "meta_rev_at_epoch": 87983,
        "meta_bstar": 0.0013522655,
        "meta_mean_motion_dot": 3.795e-05,
        "meta_mean_motion_ddot": 0,
        "tle_line1": "1 36182U 99025DTF 25348.55807341  .00003795  00000+0  13523-2 0  9999",
        "tle_line2": "2 36182  99.0884 276.2066 0022119  70.7480 289.6093 14.34742053879835"
      },
      "geometry": {
        "type": "Point",
        "coordinates": [
          72.68834827509437,
          -69.12382124527392
        ]
      }
    },
    {
      "type": "Feature",
      "properties": {
        "norad_id": 36186,
        "name": "FENGYUN 1C DEB",
        "group": "fengyun-1c-debris",
        "lat": -73.53214972991402,
        "lon": 1.2750417464020092,
        "alt_km": 527.0195476528143,
        "timestamp": "2025-12-15T19:00:45.644589+00:00",
        "meta_object_name": "FENGYUN 1C DEB",
        "meta_object_id": "1999-025DTK",
        "meta_epoch": "2025-12-06T21:01:26.135616",
        "meta_mean_motion": 15.09149878,
        "meta_eccentricity": 0.00147295,
        "meta_inclination": 98.9889,
        "meta_ra_of_asc_node": 203.1836,
        "meta_arg_of_pericenter": 349.9169,
        "meta_mean_anomaly": 20.7197,
        "meta_ephemeris_type": 0,
        "meta_classification_type": "U",
        "meta_norad_cat_id": 36186,
        "meta_element_set_no": 999,
        "meta_rev_at_epoch": 61482,
        "meta_bstar": 0.015546812,
        "meta_mean_motion_dot": 0.00256087,
        "meta_mean_motion_ddot": 0,
        "tle_line1": "1 36186U 99025DTK 25340.87599694  .00256087  00000+0  15547-1 0  9990",
        "tle_line2": "2 36186  98.9889 203.1836 0014729 349.9169  20.7197 15.09149878614823"
      },
      "geometry": {
        "type": "Point",
        "coordinates": [
          1.2750417464020092,
          -73.53214972991402
        ]
      }
    },
    {
      "type": "Feature",
      "properties": {
        "norad_id": 36188,
        "name": "FENGYUN 1C DEB",
        "group": "fengyun-1c-debris",
        "lat": -59.88729528877557,
        "lon": -104.77305031729772,
        "alt_km": 678.0212071651313,
        "timestamp": "2025-12-15T19:00:45.644599+00:00",
        "meta_object_name": "FENGYUN 1C DEB",
        "meta_object_id": "1999-025DTM",
        "meta_epoch": "2025-12-10T17:53:45.757536",
        "meta_mean_motion": 14.60603785,
        "meta_eccentricity": 0.00476278,
        "meta_inclination": 98.5851,
        "meta_ra_of_asc_node": 85.0962,
        "meta_arg_of_pericenter": 310.9096,
        "meta_mean_anomaly": 48.7983,
        "meta_ephemeris_type": 0,
        "meta_classification_type": "U",
        "meta_norad_cat_id": 36188,
        "meta_element_set_no": 999,
        "meta_rev_at_epoch": 88023,
        "meta_bstar": 0.0038994823,
        "meta_mean_motion_dot": 0.00019263,
        "meta_mean_motion_ddot": 0,
        "tle_line1": "1 36188U 99025DTM 25344.74566849  .00019263  00000+0  38995-2 0  9994",
        "tle_line2": "2 36188  98.5851  85.0962 0047627 310.9096  48.7983 14.60603785880238"
      },
      "geometry": {
        "type": "Point",
        "coordinates": [
          -104.77305031729772,
          -59.88729528877557
        ]
      }
    }
  ]
}